[Satellite]
VERSION=1.1
NAME=FLOCK 2K-20
NICKNAME=FLOCK 2K-20
TLE1=1 42885U 17042BN  18020.65835213  .00008388  00000-0  24551-3 0  9992
TLE2=2 42885  96.9937 284.7731 0010945 276.4582  83.5417 15.35416999 28995
